{
    "links": {
        "self": "http://www.neowsapp.com/rest/v1/neo/3837567?api_key=iIulBulltgU6a56xZRHN4H3l9WmuAYTsLGpBGhQ2"
    },
    "id": "3837567",
    "neo_reference_id": "3837567",
    "name": "(2019 AX)",
    "designation": "2019 AX",
    "nasa_jpl_url": "http://ssd.jpl.nasa.gov/sbdb.cgi?sstr=3837567",
    "absolute_magnitude_h": 23.0,
    "estimated_diameter": {
        "kilometers": {
            "estimated_diameter_min": 0.0667659413,
            "estimated_diameter_max": 0.1492931834
        },
        "meters": {
            "estimated_diameter_min": 66.7659413495,
            "estimated_diameter_max": 149.2931834393
        },
        "miles": {
            "estimated_diameter_min": 0.0414864197,
            "estimated_diameter_max": 0.0927664547
        },
        "feet": {
            "estimated_diameter_min": 219.0483710172,
            "estimated_diameter_max": 489.807047955
        }
    },
    "is_potentially_hazardous_asteroid": false,
    "close_approach_data": [
        {
            "close_approach_date": "2018-12-24",
            "close_approach_date_full": "2018-Dec-24 12:56",
            "epoch_date_close_approach": 1545656160000,
            "relative_velocity": {
                "kilometers_per_second": "8.7292792052",
                "kilometers_per_hour": "31425.4051385889",
                "miles_per_hour": "19526.5246540304"
            },
            "miss_distance": {
                "astronomical": "0.1026135808",
                "lunar": "39.9166829312",
                "kilometers": "15350773.120752896",
                "miles": "9538528.1098101248"
            },
            "orbiting_body": "Earth"
        },
        {
            "close_approach_date": "2034-10-01",
            "close_approach_date_full": "2034-Oct-01 08:12",
            "epoch_date_close_approach": 2043303120000,
            "relative_velocity": {
                "kilometers_per_second": "14.9617508324",
                "kilometers_per_hour": "53862.3029967995",
                "miles_per_hour": "33467.9404370947"
            },
            "miss_distance": {
                "astronomical": "0.0724308067",
                "lunar": "28.1755838063",
                "kilometers": "10835494.404701729",
                "miles": "6732864.0160287002"
            },
            "orbiting_body": "Mars"
        },
        {
            "close_approach_date": "2176-12-01",
            "close_approach_date_full": "2176-Dec-01 22:50",
            "epoch_date_close_approach": 6529762200000,
            "relative_velocity": {
                "kilometers_per_second": "4.5170118858",
                "kilometers_per_hour": "16261.2427887694",
                "miles_per_hour": "10104.1038872773"
            },
            "miss_distance": {
                "astronomical": "0.2164323273",
                "lunar": "84.1921753197",
                "kilometers": "32377815.163222851",
                "miles": "20118641.4286273038"
            },
            "orbiting_body": "Earth"
        },
        {
            "close_approach_date": "2180-12-06",
            "close_approach_date_full": "2180-Dec-06 08:12",
            "epoch_date_close_approach": 6656371920000,
            "relative_velocity": {
                "kilometers_per_second": "5.0768335514",
                "kilometers_per_hour": "18276.600784892",
                "miles_per_hour": "11356.3689710347"
            },
            "miss_distance": {
                "astronomical": "0.2300434215",
                "lunar": "89.4868909635",
                "kilometers": "34414005.863912205",
                "miles": "21383871.660530229"
            },
            "orbiting_body": "Earth"
        }
    ],
    "orbital_data": {
        "orbit_id": "7",
        "orbit_determination_date": "2019-02-13 06:58:14",
        "first_observation_date": "2018-12-20",
        "last_observation_date": "2019-02-10",
        "data_arc_in_days": 52,
        "observations_used": 37,
        "orbit_uncertainty": "6",
        "minimum_orbit_intersection": ".0829707",
        "jupiter_tisserand_invariant": "3.222",
        "epoch_osculation": "2459000.5",
        "eccentricity": ".5858908063790671",
        "semi_major_axis": "2.466351690112586",
        "inclination": "4.307840609405491",
        "ascending_node_longitude": "153.8587122664466",
        "orbital_period": "1414.754012667353",
        "perihelion_distance": "1.021338909578148",
        "perihelion_argument": "276.3883593943515",
        "aphelion_distance": "3.911364470647023",
        "perihelion_time": "2458460.595584412708",
        "mean_anomaly": "137.3847240376237",
        "mean_motion": ".2544611973365335",
        "equinox": "J2000",
        "orbit_class": {
            "orbit_class_type": "AMO",
            "orbit_class_description": "Near-Earth asteroid orbits similar to that of 1221 Amor",
            "orbit_class_range": "1.017 AU < q (perihelion) < 1.3 AU"
        }
    },
    "is_sentry_object": false
}